{
  "type": "FeatureCollection",
  "features": [
    {
      "type": "Feature",
      "properties": {
        "norad_id": 34972,
        "name": "COSMOS 2251 DEB",
        "group": "cosmos-2251-debris",
        "lat": 1.7035065860834417,
        "lon": 38.861194120204736,
        "alt_km": 676.6508626082123,
        "timestamp": "2025-12-18T14:52:08.420319+00:00",
        "meta_object_name": "COSMOS 2251 DEB",
        "meta_object_id": "1993-036AFB",
        "meta_epoch": "2025-12-18T05:23:24.742752",
        "meta_mean_motion": 14.72969956,
        "meta_eccentricity": 0.00332471,
        "meta_inclination": 73.9903,
        "meta_ra_of_asc_node": 39.1431,
        "meta_arg_of_pericenter": 197.1269,
        "meta_mean_anomaly": 231.2337,
        "meta_ephemeris_type": 0,
        "meta_classification_type": "U",
        "meta_norad_cat_id": 34972,
        "meta_element_set_no": 999,
        "meta_rev_at_epoch": 87731,
        "meta_bstar": 0.0010976522,
        "meta_mean_motion_dot": 7.082e-05,
        "meta_mean_motion_ddot": 0,
        "tle_line1": "1 34972U 93036AFB 25352.22459193  .00007082  00000+0  10977-2 0  9990",
        "tle_line2": "2 34972  73.9903  39.1431 0033247 197.1269 231.2337 14.72969956877318"
      },
      "geometry": {
        "type": "Point",
        "coordinates": [
          38.861194120204736,
          1.7035065860834417
        ]
      }
    },
    {
      "type": "Feature",
      "properties": {
        "norad_id": 34976,
        "name": "COSMOS 2251 DEB",
        "group": "cosmos-2251-debris",
        "lat": 6.118653796636178,
        "lon": 112.98546657484951,
        "alt_km": 674.2762164680016,
        "timestamp": "2025-12-18T14:52:08.420330+00:00",
        "meta_object_name": "COSMOS 2251 DEB",
        "meta_object_id": "1993-036AFF",
        "meta_epoch": "2025-12-18T02:46:07.121280",
        "meta_mean_motion": 14.76682106,
        "meta_eccentricity": 0.00478221,
        "meta_inclination": 74.0573,
        "meta_ra_of_asc_node": 295.7277,
        "meta_arg_of_pericenter": 341.3704,
        "meta_mean_anomaly": 33.1304,
        "meta_ephemeris_type": 0,
        "meta_classification_type": "U",
        "meta_norad_cat_id": 34976,
        "meta_element_set_no": 999,
        "meta_rev_at_epoch": 88353,
        "meta_bstar": 0.0012548314,
        "meta_mean_motion_dot": 8.924e-05,
        "meta_mean_motion_ddot": 0,
        "tle_line1": "1 34976U 93036AFF 25352.11536020  .00008924  00000+0  12548-2 0  9999",
        "tle_line2": "2 34976  74.0573 295.7277 0047822 341.3704  33.1304 14.76682106883533"
      },
      "geometry": {
        "type": "Point",
        "coordinates": [
          112.98546657484951,
          6.118653796636178
        ]
      }
    },
    {
      "type": "Feature",
      "properties": {
        "norad_id": 34979,
        "name": "COSMOS 2251 DEB",
        "group": "cosmos-2251-debris",
        "lat": -71.05476799564353,
        "lon": -160.78567056784115,
        "alt_km": 616.7034383018827,
        "timestamp": "2025-12-18T14:52:08.420340+00:00",
        "meta_object_name": "COSMOS 2251 DEB",
        "meta_object_id": "1993-036AFJ",
        "meta_epoch": "2025-12-18T03:51:54.567936",
        "meta_mean_motion": 14.79449639,
        "meta_eccentricity": 0.00491534,
        "meta_inclination": 74.0405,
        "meta_ra_of_asc_node": 256.5962,
        "meta_arg_of_pericenter": 333.4669,
        "meta_mean_anomaly": 26.3991,
        "meta_ephemeris_type": 0,
        "meta_classification_type": "U",
        "meta_norad_cat_id": 34979,
        "meta_element_set_no": 999,
        "meta_rev_at_epoch": 88300,
        "meta_bstar": 0.00091999537,
        "meta_mean_motion_dot": 6.983e-05,
        "meta_mean_motion_ddot": 0,
        "tle_line1": "1 34979U 93036AFJ 25352.16104824  .00006983  00000+0  92000-3 0  9995",
        "tle_line2": "2 34979  74.0405 256.5962 0049153 333.4669  26.3991 14.79449639883000"
      },
      "geometry": {
        "type": "Point",
        "coordinates": [
          -160.78567056784115,
          -71.05476799564353
        ]
      }
    },
    {
      "type": "Feature",
      "properties": {
        "norad_id": 34990,
        "name": "COSMOS 2251 DEB",
        "group": "cosmos-2251-debris",
        "lat": -36.51320926917202,
        "lon": -131.78906816380555,
        "alt_km": 745.4672907469703,
        "timestamp": "2025-12-18T14:52:08.420350+00:00",
        "meta_object_name": "COSMOS 2251 DEB",
        "meta_object_id": "1993-036AFN",
        "meta_epoch": "2025-12-15T10:28:28.781472",
        "meta_mean_motion": 14.42382837,
        "meta_eccentricity": 0.00165597,
        "meta_inclination": 74.0457,
        "meta_ra_of_asc_node": 246.3361,
        "meta_arg_of_pericenter": 308.9911,
        "meta_mean_anomaly": 50.977,
        "meta_ephemeris_type": 0,
        "meta_classification_type": "U",
        "meta_norad_cat_id": 34990,
        "meta_element_set_no": 999,
        "meta_rev_at_epoch": 87385,
        "meta_bstar": 0.00031884459,
        "meta_mean_motion_dot": 1.029e-05,
        "meta_mean_motion_ddot": 0,
        "tle_line1": "1 34990U 93036AFN 25349.43644423  .00001029  00000+0  31884-3 0  9997",
        "tle_line2": "2 34990  74.0457 246.3361 0016559 308.9911  50.9770 14.42382837873857"
      },
      "geometry": {
        "type": "Point",
        "coordinates": [
          -131.78906816380555,
          -36.51320926917202
        ]
      }
    },
    {
      "type": "Feature",
      "properties": {
        "norad_id": 34997,
        "name": "COSMOS 2251 DEB",
        "group": "cosmos-2251-debris",
        "lat": -14.097275281244954,
        "lon": 124.2952729249661,
        "alt_km": 730.7543437065187,
        "timestamp": "2025-12-18T14:52:08.420360+00:00",
        "meta_object_name": "COSMOS 2251 DEB",
        "meta_object_id": "1993-036AFV",
        "meta_epoch": "2025-12-14T03:40:01.084512",
        "meta_mean_motion": 14.45585468,
        "meta_eccentricity": 0.00977103,
        "meta_inclination": 73.8806,
        "meta_ra_of_asc_node": 308.5363,
        "meta_arg_of_pericenter": 283.3348,
        "meta_mean_anomaly": 75.6929,
        "meta_ephemeris_type": 0,
        "meta_classification_type": "U",
        "meta_norad_cat_id": 34997,
        "meta_element_set_no": 999,
        "meta_rev_at_epoch": 70767,
        "meta_bstar": 0.0019000145,
        "meta_mean_motion_dot": 7.095e-05,
        "meta_mean_motion_ddot": 0,
        "tle_line1": "1 34997U 93036AFV 25348.15279033  .00007095  00000+0  19000-2 0  9997",
        "tle_line2": "2 34997  73.8806 308.5363 0097710 283.3348  75.6929 14.45585468707674"
      },
      "geometry": {
        "type": "Point",
        "coordinates": [
          124.2952729249661,
          -14.097275281244954
        ]
      }
    },
    {
      "type": "Feature",
      "properties": {
        "norad_id": 34998,
        "name": "COSMOS 2251 DEB",
        "group": "cosmos-2251-debris",
        "lat": 26.184194385723195,
        "lon": -39.16670578561808,
        "alt_km": 738.3338011742117,
        "timestamp": "2025-12-18T14:52:08.420370+00:00",
        "meta_object_name": "COSMOS 2251 DEB",
        "meta_object_id": "1993-036AFW",
        "meta_epoch": "2025-12-16T10:57:12.458016",
        "meta_mean_motion": 14.49297332,
        "meta_eccentricity": 0.00212597,
        "meta_inclination": 74.0093,
        "meta_ra_of_asc_node": 153.0016,
        "meta_arg_of_pericenter": 297.9373,
        "meta_mean_anomaly": 93.1906,
        "meta_ephemeris_type": 0,
        "meta_classification_type": "U",
        "meta_norad_cat_id": 34998,
        "meta_element_set_no": 999,
        "meta_rev_at_epoch": 87474,
        "meta_bstar": 0.00045816077,
        "meta_mean_motion_dot": 1.726e-05,
        "meta_mean_motion_ddot": 0,
        "tle_line1": "1 34998U 93036AFW 25350.45639419  .00001726  00000+0  45816-3 0  9992",
        "tle_line2": "2 34998  74.0093 153.0016 0021259 297.9373  93.1906 14.49297332874745"
      },
      "geometry": {
        "type": "Point",
        "coordinates": [
          -39.16670578561808,
          26.184194385723195
        ]
      }
    },
    {
      "type": "Feature",
      "properties": {
        "norad_id": 35012,
        "name": "COSMOS 2251 DEB",
        "group": "cosmos-2251-debris",
        "lat": 44.85604121041206,
        "lon": 117.32877536731313,
        "alt_km": 792.6970511394848,
        "timestamp": "2025-12-18T14:52:08.420380+00:00",
        "meta_object_name": "COSMOS 2251 DEB",
        "meta_object_id": "1993-036AFZ",
        "meta_epoch": "2025-12-17T08:45:06.225696",
        "meta_mean_motion": 14.45554969,
        "meta_eccentricity": 0.00815478,
        "meta_inclination": 74.0209,
        "meta_ra_of_asc_node": 103.105,
        "meta_arg_of_pericenter": 242.2771,
        "meta_mean_anomaly": 117.0098,
        "meta_ephemeris_type": 0,
        "meta_classification_type": "U",
        "meta_norad_cat_id": 35012,
        "meta_element_set_no": 999,
        "meta_rev_at_epoch": 87628,
        "meta_bstar": 0.00015311641,
        "meta_mean_motion_dot": 5.34e-06,
        "meta_mean_motion_ddot": 0,
        "tle_line1": "1 35012U 93036AFZ 25351.36465539  .00000534  00000+0  15312-3 0  9995",
        "tle_line2": "2 35012  74.0209 103.1050 0081547 242.2771 117.0098 14.45554969876284"
      },
      "geometry": {
        "type": "Point",
        "coordinates": [
          117.32877536731313,
          44.85604121041206
        ]
      }
    }
  ]
}